SL-3 R/B                
1 19046U 88032B   18305.91824350  .00000805  00000-0  64214-4 0  9994
2 19046  97.4650 341.2953 0037660  65.9425 294.5734 15.02491441647836
SL-16 R/B               
1 19120U 88039B   18306.20920585  .00000160  00000-0  99096-4 0  9994
2 19120  71.0155 342.0522 0020440 141.8668 218.3908 14.19190454577756
COSMOS 1953             
1 19210U 88050A   18306.03997205  .00000953  00000-0  63908-4 0  9994
2 19210  82.5160 265.6706 0013326 351.1176   8.9813 15.05653424653499
SL-8 R/B                
1 19257U 88053B   18305.80024740  .00000030  00000-0  18697-4 0  9998
2 19257  74.0510  12.4970 0019536 141.3828 357.9371 14.37417029590701
COSMOS 1975             
1 19573U 88093A   18306.18363167  .00000579  00000-0  39187-4 0  9999
2 19573  82.5230 218.6654 0015106  30.0298 330.1791 15.04565543635437
SL-14 R/B               
1 19574U 88093B   18306.19404269  .00000070  00000-0  56513-5 0  9999
2 19574  82.5352  34.7701 0020145 257.2261 163.7759 14.83279373624010
SL-16 R/B               
1 19650U 88102B   18306.20808854  .00000051  00000-0  50181-4 0  9998
2 19650  71.0004  37.3701 0012860 145.0325 215.1645 14.15776025547191
INTERCOSMOS 24          
1 20261U 89080A   18305.92078511  .00000098  00000-0  23423-4 0  9991
2 20261  82.6040  44.3713 1203809  17.3500 346.5243 12.56016697329075
SL-14 R/B               
1 20262U 89080C   18305.88498957  .00000086  00000-0  20989-4 0  9998
2 20262  82.5906  94.1149 1237101 190.4451 166.8611 12.48905492324890
DELTA 1 R/B             
1 20323U 89089B   18305.75732725  .00000003  00000-0  10085-4 0  9990
2 20323  97.0918 177.5937 0070544 300.7981  58.6285 14.48276671527467
DELTA 2 R/B(1)          
1 20453U 90008B   18305.87577816  .00000808  00000-0  49352-4 0  9990
2 20453  35.6233 153.6140 0284165  33.7111 328.1330 14.84436921522911
COSMOS 2058             
1 20465U 90010A   18305.91489866  .00000281  00000-0  21567-4 0  9991
2 20465  82.4866 124.3919 0016523  45.3691 314.8876 14.97785347539477
SL-14 R/B               
1 20466U 90010B   18306.00842752  .00000078  00000-0  68420-5 0  9994
2 20466  82.5025 262.1025 0021805 124.5123 235.8154 14.81337633551934
SL-14 R/B               
1 20511U 90018B   18306.34747378  .00000042  00000-0  25192-5 0  9998
2 20511  82.5258 205.5280 0015948 262.7671 233.1714 14.79994798546486
HST                     
1 20580U 90037B   18305.72805556  .00000459  00000-0  17114-4 0  9995
2 20580  28.4698 285.8311 0002728 174.8759 195.6002 15.09122413366266
SL-16 R/B               
1 20625U 90046B   18305.89344404  .00000273  00000-0  16672-3 0  9994
2 20625  70.9981 174.0417 0012448  59.7149 300.5203 14.14633518468679
COSMOS 2084             
1 20663U 90055A   18305.63784280 -.00000055  00000-0  13459-4 0  9998
2 20663  62.7941 350.7507 0107909 140.6690 220.2306 14.91904468534763
SL-6 R/B(2)             
1 20666U 90055D   18306.19709994 -.00000079  00000-0  11042-4 0  9994
2 20666  62.7854 266.5598 0076787 163.7720 196.5859 14.92184028536237
SL-8 R/B                
1 20775U 90078B   18305.72739565  .00001273  00000-0  62277-4 0  9997
2 20775  82.9298 355.5669 0579762 231.5134 123.2698 14.32601197420679
SL-8 R/B                
1 21088U 91006B   18306.22067324  .00000002  00000-0 -13786-4 0  9991
2 21088  82.9450   6.2807 0022257 355.6879  67.3418 13.77097722394834
OKEAN-3                 
1 21397U 91039A   18305.77551303  .00000177  00000-0  14622-4 0  9996
2 21397  82.5249  20.9183 0017764   1.3330 358.7934 14.92727658484750
COSMOS 2151             
1 21422U 91042A   18305.95207316  .00000169  00000-0  14143-4 0  9990
2 21422  82.4977 127.9541 0015480  58.8442 301.4293 14.91993967462381
SL-14 R/B               
1 21423U 91042B   18306.16771240  .00000072  00000-0  64486-5 0  9996
2 21423  82.4967 211.3695 0018735  46.2693 314.0068 14.79745994476964
ERS-1                   
1 21574U 91050A   18306.46528309  .00000015  00000-0  19688-4 0  9991
2 21574  98.5194 252.3685 0031868 252.9920 106.7774 14.37668967429894
ARIANE 40 R/B           
1 21610U 91050F   18305.82573593 -.00000003  00000-0  13011-4 0  9998
2 21610  98.5403   8.5375 0002412 223.2233 252.1017 14.40853622432490
INTERCOSMOS 25          
1 21819U 91086A   18306.53608755  .00000391  00000-0  71459-4 0  9995
2 21819  82.5905 121.2644 1517320  95.1151 282.4223 12.04958388172891
SL-14 R/B               
1 21820U 91086B   18305.86658100  .00000040  00000-0  79838-5 0  9992
2 21820  82.5636 181.9433 1576061 304.8310  41.4196 11.93413340166747
SL-8 R/B                
1 21876U 92008B   18306.02561101 -.00000014  00000-0 -30748-4 0  9990
2 21876  82.9239 103.4893 0035929  71.3037  67.9641 13.75627706340516
SL-8 R/B                
1 21938U 92020B   18305.73259649 -.00000017  00000-0 -32945-4 0  9995
2 21938  82.9301 347.3718 0028288 228.2067 262.4259 13.75268489332366
SL-16 R/B               
1 22220U 92076B   18306.57512853  .00000177  00000-0  11284-3 0  9990
2 22220  70.9998  79.6183 0014596 231.9966 201.7839 14.16435981342053
SL-16 R/B               
1 22285U 92093B   18305.92265494  .00000261  00000-0  15915-3 0  9993
2 22285  71.0222 237.6519 0002083  73.6469 286.4883 14.15027096333379
COSMOS 2228             
1 22286U 92094A   18305.95646587  .00000148  00000-0  13428-4 0  9996
2 22286  82.5197 259.8674 0019635 251.1588 108.7500 14.87983427376188
SL-16 R/B               
1 22566U 93016B   18305.84690812 -.00000210  00000-0 -83909-4 0  9993
2 22566  71.0070  91.7939 0007856  87.5274 272.6748 14.14957528322385
COSMOS 2242             
1 22626U 93024A   18305.94514936  .00000158  00000-0  14529-4 0  9993
2 22626  82.5193 287.7670 0017443 250.4340 109.4995 14.87845810380602
SL-16 R/B               
1 22803U 93059B   18305.92100142 -.00000057  00000-0 -46172-5 0  9996
2 22803  70.9900 270.0426 0018314 332.8192  27.1971 14.16804162299233
ARIANE 40 R/B           
1 22830U 93061H   18305.92615344 -.00000032  00000-0  53032-5 0  9999
2 22830  98.8458 336.8495 0009900 257.9992 102.0081 14.31420315309916
COSMOS 2278             
1 23087U 94023A   18305.70146133  .00000297  00000-0  18167-3 0  9994
2 23087  71.0555  28.6829 0008816 180.6905 179.4207 14.13775037265520
SL-16 R/B               
1 23088U 94023B   18306.22790118 -.00000168  00000-0 -62509-4 0  9990
2 23088  70.9997 306.2410 0002009   3.7930 356.3208 14.14674393266680
SL-16 R/B               
1 23343U 94074B   18305.78338628  .00000005  00000-0  81373-5 0  9993
2 23343  98.0879 350.8873 0005580 257.4834 236.6121 14.76750403291003
SL-16 R/B               
1 23405U 94077B   18306.25339446 -.00000185  00000-0 -70515-4 0  9993
2 23405  70.9842 237.6967 0005194 275.6819  84.3711 14.15209298236683
ERS-2                   
1 23560U 95021A   18305.75985220  .00000752  00000-0  36703-4 0  9995
2 23560  98.5204  10.6511 0004347  51.6742 308.4881 15.22083197251775
ARIANE 40+ R/B          
1 23561U 95021B   18305.97018010  .00000017  00000-0  20912-4 0  9993
2 23561  98.7868 323.7870 0006482 203.9907 213.5850 14.37894252233282
SL-16 R/B               
1 23705U 95058B   18305.75302811 -.00000075  00000-0 -14052-4 0  9998
2 23705  71.0241  54.6073 0014855 255.2214 104.7263 14.15120871188283
SL-16 R/B               
1 24298U 96051B   18305.82726462 -.00000085  00000-0 -19597-4 0  9990
2 24298  70.8278  82.4636 0015681 166.3142 193.8407 14.12401877142534
ORBVIEW 2 (SEASTAR)     
1 24883U 97037A   18305.90442307  .00000028  00000-0  25932-4 0  9992
2 24883  98.5719  53.7184 0003321  71.8949 288.2597 14.33476156123671
SL-16 R/B               
1 25400U 98043G   18306.43844682 -.00000028  00000-0  64302-5 0  9993
2 25400  98.5463 245.2695 0008792 264.9420  95.0756 14.25433656 56769
SL-16 R/B               
1 25407U 98045B   18306.48986303 -.00000040  00000-0  38602-5 0  9992
2 25407  71.0112  63.7414 0007323 177.3363 182.7801 14.15781011 47425
ISS (ZARYA)             
1 25544U 98067A   18306.68317532  .00001479  00000-0  29837-4 0  9997
2 25544  51.6425  48.5522 0004412   5.2597 100.4210 15.53889990140055
SL-8 R/B                
1 25723U 99022C   18305.63726954  .00005812  00000-0  71680-4 0  9992
2 25723  48.4160 352.8408 0008798 308.7086  51.3074 15.61635487 84848
CZ-4B R/B               
1 25732U 99025C   18305.91346337 -.00000033  00000-0  60354-5 0  9997
2 25732  98.9909 318.8632 0038360 100.6095 320.6965 14.17655774  7721
OKEAN-O                 
1 25860U 99039A   18305.90683081  .00000035  00000-0  12727-4 0  9994
2 25860  98.2235 303.9649 0001110  64.5118 295.6206 14.76572574 37923
SL-16 R/B               
1 25861U 99039B   18305.95672678  .00000012  00000-0  91959-5 0  9990
2 25861  98.1677 287.6559 0014359 264.2019 153.6653 14.78501736 40061
TERRA                   
1 25994U 99068A   18306.41559522 -.00000377  00000-0 -73671-4 0  9999
2 25994  98.2132  19.2143 0001299 101.5525 258.5828 14.57125351  3955
ENVISAT                 
1 27386U 02009A   18306.51428372 -.00000010  00000-0  10228-4 0  9996
2 27386  98.1721 333.9657 0001225  98.3771  27.6974 14.37933173873405
IDEFIX & ARIANE 42P R/B 
1 27422U 02021B   18306.50676464 -.00000026  00000-0  57523-5 0  9994
2 27422  98.2718 284.9493 0012098 179.7890 180.3300 14.29265837858579
AQUA                    
1 27424U 02022A   18306.52475380  .00000069  00000-0  25396-4 0  9991
2 27424  98.2076 245.6174 0002581  41.9670  71.0409 14.57118874877576
CZ-4B R/B               
1 27432U 02024C   18306.55011885 -.00000014  00000-0  16355-4 0  9997
2 27432  99.0492 289.7477 0051290  50.2856  57.6986 14.14071579849933
MIDORI II (ADEOS-II)    
1 27597U 02056A   18305.88536251  .00000050  00000-0  37743-4 0  9991
2 27597  98.4396 261.0907 0000575  21.5233 338.5973 14.27371428827137
H-2A R/B                
1 27601U 02056E   18305.78824964  .00000017  00000-0  21566-4 0  9996
2 27601  98.3112 359.3944 0071143 243.2808 225.4215 14.31861854829733
